[{"OBJECT_NAME":"STARLINK-34320","OBJECT_ID":"2025-117Q","EPOCH":"2026-03-02T10:51:24.096672","MEAN_MOTION":15.30196119,"ECCENTRICITY":0.00012429,"INCLINATION":53.1581,"RA_OF_ASC_NODE":73.5053,"ARG_OF_PERICENTER":87.7346,"MEAN_ANOMALY":272.3798,"EPHEMERIS_TYPE":0,"CLASSIFICATION_TYPE":"U","NORAD_CAT_ID":64217,"ELEMENT_SET_NO":999,"REV_AT_EPOCH":4341,"BSTAR":0.00073822665,"MEAN_MOTION_DOT":0.00021566,"MEAN_MOTION_DDOT":0},{"OBJECT_NAME":"STARLINK-34300","OBJECT_ID":"2025-117R","EPOCH":"2026-03-02T09:43:01.244064","MEAN_MOTION":15.30198942,"ECCENTRICITY":0.00014379,"INCLINATION":53.1586,"RA_OF_ASC_NODE":73.2067,"ARG_OF_PERICENTER":83.8404,"MEAN_ANOMALY":276.2761,"EPHEMERIS_TYPE":0,"CLASSIFICATION_TYPE":"U","NORAD_CAT_ID":64218,"ELEMENT_SET_NO":999,"REV_AT_EPOCH":4341,"BSTAR":0.0011300033,"MEAN_MOTION_DOT":0.00033257,"MEAN_MOTION_DDOT":0},{"OBJECT_NAME":"STARLINK-34323","OBJECT_ID":"2025-117S","EPOCH":"2026-03-02T23:57:06.075936","MEAN_MOTION":15.30213224,"ECCENTRICITY":0.0002008,"INCLINATION":53.1606,"RA_OF_ASC_NODE":70.5111,"ARG_OF_PERICENTER":74.2687,"MEAN_ANOMALY":285.8536,"EPHEMERIS_TYPE":0,"CLASSIFICATION_TYPE":"U","NORAD_CAT_ID":64219,"ELEMENT_SET_NO":999,"REV_AT_EPOCH":4353,"BSTAR":0.00086325655,"MEAN_MOTION_DOT":0.00025306,"MEAN_MOTION_DDOT":0},{"OBJECT_NAME":"STARLINK-34328","OBJECT_ID":"2025-117T","EPOCH":"2026-03-02T07:03:47.168352","MEAN_MOTION":15.30196663,"ECCENTRICITY":0.00012941,"INCLINATION":53.1599,"RA_OF_ASC_NODE":73.9387,"ARG_OF_PERICENTER":83.7813,"MEAN_ANOMALY":276.3335,"EPHEMERIS_TYPE":0,"CLASSIFICATION_TYPE":"U","NORAD_CAT_ID":64220,"ELEMENT_SET_NO":999,"REV_AT_EPOCH":4339,"BSTAR":0.00076678851,"MEAN_MOTION_DOT":0.00022417,"MEAN_MOTION_DDOT":0},{"OBJECT_NAME":"STARLINK-34326","OBJECT_ID":"2025-117U","EPOCH":"2026-03-02T07:06:49.588128","MEAN_MOTION":15.30199321,"ECCENTRICITY":0.00014069,"INCLINATION":53.1596,"RA_OF_ASC_NODE":73.9531,"ARG_OF_PERICENTER":86.6513,"MEAN_ANOMALY":273.4649,"EPHEMERIS_TYPE":0,"CLASSIFICATION_TYPE":"U","NORAD_CAT_ID":64221,"ELEMENT_SET_NO":999,"REV_AT_EPOCH":4342,"BSTAR":0.00082563123,"MEAN_MOTION_DOT":0.00024173,"MEAN_MOTION_DDOT":0},{"OBJECT_NAME":"STARLINK-34318","OBJECT_ID":"2025-117V","EPOCH":"2026-03-02T07:17:27.656448","MEAN_MOTION":15.30197654,"ECCENTRICITY":0.00013402,"INCLINATION":53.1599,"RA_OF_ASC_NODE":73.997,"ARG_OF_PERICENTER":77.6285,"MEAN_ANOMALY":282.4866,"EPHEMERIS_TYPE":0,"CLASSIFICATION_TYPE":"U","NORAD_CAT_ID":64222,"ELEMENT_SET_NO":999,"REV_AT_EPOCH":4339,"BSTAR":0.00074668206,"MEAN_MOTION_DOT":0.00021819,"MEAN_MOTION_DDOT":0},{"OBJECT_NAME":"STARLINK-34337","OBJECT_ID":"2025-117W","EPOCH":"2026-03-02T07:26:34.833696","MEAN_MOTION":15.30205646,"ECCENTRICITY":0.00011739,"INCLINATION":53.1593,"RA_OF_ASC_NODE":74.0385,"ARG_OF_PERICENTER":80.8945,"MEAN_ANOMALY":279.2189,"EPHEMERIS_TYPE":0,"CLASSIFICATION_TYPE":"U","NORAD_CAT_ID":64223,"ELEMENT_SET_NO":999,"REV_AT_EPOCH":4339,"BSTAR":0.0011014609,"MEAN_MOTION_DOT":0.00032411,"MEAN_MOTION_DDOT":0},{"OBJECT_NAME":"STARLINK-34304","OBJECT_ID":"2025-117X","EPOCH":"2026-03-02T10:01:15.408480","MEAN_MOTION":15.30198248,"ECCENTRICITY":0.00014224,"INCLINATION":53.16,"RA_OF_ASC_NODE":73.2842,"ARG_OF_PERICENTER":86.5201,"MEAN_ANOMALY":273.5962,"EPHEMERIS_TYPE":0,"CLASSIFICATION_TYPE":"U","NORAD_CAT_ID":64224,"ELEMENT_SET_NO":999,"REV_AT_EPOCH":4344,"BSTAR":0.0012733994,"MEAN_MOTION_DOT":0.00037544,"MEAN_MOTION_DDOT":0},{"OBJECT_NAME":"STARLINK-34289","OBJECT_ID":"2025-117Y","EPOCH":"2026-03-02T07:08:20.655456","MEAN_MOTION":15.30198767,"ECCENTRICITY":0.00012884,"INCLINATION":53.1604,"RA_OF_ASC_NODE":73.9553,"ARG_OF_PERICENTER":82.4754,"MEAN_ANOMALY":277.6393,"EPHEMERIS_TYPE":0,"CLASSIFICATION_TYPE":"U","NORAD_CAT_ID":64225,"ELEMENT_SET_NO":999,"REV_AT_EPOCH":4342,"BSTAR":0.00085798979,"MEAN_MOTION_DOT":0.00025137,"MEAN_MOTION_DDOT":0},{"OBJECT_NAME":"STARLINK-34347","OBJECT_ID":"2025-117Z","EPOCH":"2026-03-02T07:22:00.675264","MEAN_MOTION":15.30180849,"ECCENTRICITY":0.00010121,"INCLINATION":53.1588,"RA_OF_ASC_NODE":74.0117,"ARG_OF_PERICENTER":94.2733,"MEAN_ANOMALY":265.8383,"EPHEMERIS_TYPE":0,"CLASSIFICATION_TYPE":"U","NORAD_CAT_ID":64226,"ELEMENT_SET_NO":999,"REV_AT_EPOCH":4339,"BSTAR":0.0015435235,"MEAN_MOTION_DOT":0.00045609,"MEAN_MOTION_DDOT":0},{"OBJECT_NAME":"STARLINK-34330","OBJECT_ID":"2025-117AA","EPOCH":"2026-03-02T10:07:19.865280","MEAN_MOTION":15.30192346,"ECCENTRICITY":0.00014522,"INCLINATION":53.1604,"RA_OF_ASC_NODE":73.3058,"ARG_OF_PERICENTER":92.637,"MEAN_ANOMALY":267.4797,"EPHEMERIS_TYPE":0,"CLASSIFICATION_TYPE":"U","NORAD_CAT_ID":64227,"ELEMENT_SET_NO":999,"REV_AT_EPOCH":4341,"BSTAR":0.000615206,"MEAN_MOTION_DOT":0.00017901,"MEAN_MOTION_DDOT":0},{"OBJECT_NAME":"STARLINK-34167","OBJECT_ID":"2025-117AB","EPOCH":"2026-03-02T11:03:23.649696","MEAN_MOTION":15.30205458,"ECCENTRICITY":0.00013394,"INCLINATION":53.1577,"RA_OF_ASC_NODE":72.8398,"ARG_OF_PERICENTER":94.7758,"MEAN_ANOMALY":265.3395,"EPHEMERIS_TYPE":0,"CLASSIFICATION_TYPE":"U","NORAD_CAT_ID":64228,"ELEMENT_SET_NO":999,"REV_AT_EPOCH":4345,"BSTAR":0.00081918191,"MEAN_MOTION_DOT":0.00023985,"MEAN_MOTION_DDOT":0},{"OBJECT_NAME":"STARLINK-34241","OBJECT_ID":"2025-117AC","EPOCH":"2026-03-02T07:38:44.879136","MEAN_MOTION":15.30191749,"ECCENTRICITY":0.00012745,"INCLINATION":53.158,"RA_OF_ASC_NODE":74.1513,"ARG_OF_PERICENTER":96.2212,"MEAN_ANOMALY":263.8934,"EPHEMERIS_TYPE":0,"CLASSIFICATION_TYPE":"U","NORAD_CAT_ID":64229,"ELEMENT_SET_NO":999,"REV_AT_EPOCH":4342,"BSTAR":0.00090631831,"MEAN_MOTION_DOT":0.00026573,"MEAN_MOTION_DDOT":0},{"OBJECT_NAME":"STARLINK-11686 [DTC]","OBJECT_ID":"2025-119A","EPOCH":"2026-03-02T21:37:02.731584","MEAN_MOTION":15.70888328,"ECCENTRICITY":0.0001906,"INCLINATION":43.0013,"RA_OF_ASC_NODE":250.336,"ARG_OF_PERICENTER":271.8559,"MEAN_ANOMALY":88.209,"EPHEMERIS_TYPE":0,"CLASSIFICATION_TYPE":"U","NORAD_CAT_ID":64233,"ELEMENT_SET_NO":999,"REV_AT_EPOCH":4417,"BSTAR":0.0018094704,"MEAN_MOTION_DOT":0.00239017,"MEAN_MOTION_DDOT":0},{"OBJECT_NAME":"STARLINK-11682 [DTC]","OBJECT_ID":"2025-119B","EPOCH":"2026-03-02T12:49:18.333408","MEAN_MOTION":15.71055152,"ECCENTRICITY":0.00024906,"INCLINATION":42.9996,"RA_OF_ASC_NODE":252.7561,"ARG_OF_PERICENTER":246.5794,"MEAN_ANOMALY":113.4812,"EPHEMERIS_TYPE":0,"CLASSIFICATION_TYPE":"U","NORAD_CAT_ID":64234,"ELEMENT_SET_NO":999,"REV_AT_EPOCH":4411,"BSTAR":0.0029421257,"MEAN_MOTION_DOT":0.00399369,"MEAN_MOTION_DDOT":0},{"OBJECT_NAME":"STARLINK-11675 [DTC]","OBJECT_ID":"2025-119C","EPOCH":"2026-03-02T21:12:47.882592","MEAN_MOTION":15.70869104,"ECCENTRICITY":0.00017614,"INCLINATION":42.999,"RA_OF_ASC_NODE":250.2005,"ARG_OF_PERICENTER":286.0129,"MEAN_ANOMALY":74.0545,"EPHEMERIS_TYPE":0,"CLASSIFICATION_TYPE":"U","NORAD_CAT_ID":64235,"ELEMENT_SET_NO":999,"REV_AT_EPOCH":4417,"BSTAR":0.0013830251,"MEAN_MOTION_DOT":0.00181155,"MEAN_MOTION_DDOT":0}]
