STARLINK-34320          
1 64217U 25117Q   26061.45236223  .00021566  00000+0  73823-3 0  9993
2 64217  53.1581  73.5053 0001242  87.7346 272.3798 15.30196119 43418
STARLINK-34300          
1 64218U 25117R   26061.40487551  .00033257  00000+0  11300-2 0  9992
2 64218  53.1586  73.2067 0001437  83.8404 276.2761 15.30198942 43413
STARLINK-34323          
1 64219U 25117S   26061.99798699  .00025306  00000+0  86326-3 0  9992
2 64219  53.1606  70.5111 0002008  74.2687 285.8536 15.30213224 43539
STARLINK-34328          
1 64220U 25117T   26061.29429593  .00022417  00000+0  76679-3 0  9991
2 64220  53.1599  73.9387 0001294  83.7813 276.3335 15.30196663 43399
STARLINK-34326          
1 64221U 25117U   26061.29640727  .00024173  00000+0  82563-3 0  9996
2 64221  53.1596  73.9531 0001406  86.6513 273.4649 15.30199321 43426
STARLINK-34318          
1 64222U 25117V   26061.30379232  .00021819  00000+0  74668-3 0  9990
2 64222  53.1599  73.9970 0001340  77.6285 282.4866 15.30197654 43394
STARLINK-34337          
1 64223U 25117W   26061.31012539  .00032411  00000+0  11015-2 0  9992
2 64223  53.1593  74.0385 0001173  80.8945 279.2189 15.30205646 43397
STARLINK-34304          
1 64224U 25117X   26061.41753945  .00037544  00000+0  12734-2 0  9998
2 64224  53.1600  73.2842 0001422  86.5201 273.5962 15.30198248 43442
STARLINK-34289          
1 64225U 25117Y   26061.29746129  .00025137  00000+0  85799-3 0  9998
2 64225  53.1604  73.9553 0001288  82.4754 277.6393 15.30198767 43428
STARLINK-34347          
1 64226U 25117Z   26061.30695226  .00045609  00000+0  15435-2 0  9997
2 64226  53.1588  74.0117 0001012  94.2733 265.8383 15.30180849 43397
STARLINK-34330          
1 64227U 25117AA  26061.42175770  .00017901  00000+0  61521-3 0  9990
2 64227  53.1604  73.3058 0001452  92.6370 267.4797 15.30192346 43415
STARLINK-34167          
1 64228U 25117AB  26061.46069039  .00023985  00000+0  81918-3 0  9996
2 64228  53.1577  72.8398 0001339  94.7758 265.3395 15.30205458 43457
STARLINK-34241          
1 64229U 25117AC  26061.31857499  .00026573  00000+0  90632-3 0  9995
2 64229  53.1580  74.1513 0001274  96.2212 263.8934 15.30191749 43422
STARLINK-11686 [DTC]    
1 64233U 25119A   26061.90072606  .00239017  00000+0  18095-2 0  9997
2 64233  43.0013 250.3360 0001906 271.8559  88.2090 15.70888328 44176
STARLINK-11682 [DTC]    
1 64234U 25119B   26061.53423997  .00399369  00000+0  29421-2 0  9992
2 64234  42.9996 252.7561 0002490 246.5794 113.4812 15.71055152 44112
STARLINK-11675 [DTC]    
1 64235U 25119C   26061.88388753  .00181155  00000+0  13830-2 0  9990
2 64235  42.9990 250.2005 0001761 286.0129  74.0545 15.70869104 44174
